MALLIGYONG-1            
1 58400U 23179A   24132.95977165  .00019494  00000+0  84323-3 0  9999
2 58400  97.4078  20.3604 0010215  40.2375 319.9616 15.22438602 26218
